[{"OBJECT_NAME":"GHGSAT-C4","OBJECT_ID":"2022-057Q","EPOCH":"2026-03-09T22:58:28.655904","MEAN_MOTION":15.3293316,"ECCENTRICITY":0.0007552,"INCLINATION":97.6357,"RA_OF_ASC_NODE":210.0193,"ARG_OF_PERICENTER":100.0033,"MEAN_ANOMALY":260.2061,"EPHEMERIS_TYPE":0,"CLASSIFICATION_TYPE":"U","NORAD_CAT_ID":52746,"ELEMENT_SET_NO":999,"REV_AT_EPOCH":21033,"BSTAR":0.00030289005,"MEAN_MOTION_DOT":9.562e-5,"MEAN_MOTION_DDOT":0},{"OBJECT_NAME":"STARLINK-33762","OBJECT_ID":"2025-069K","EPOCH":"2026-03-09T10:15:46.511424","MEAN_MOTION":15.30174607,"ECCENTRICITY":0.00012412,"INCLINATION":53.1573,"RA_OF_ASC_NODE":143.7692,"ARG_OF_PERICENTER":65.4547,"MEAN_ANOMALY":294.6583,"EPHEMERIS_TYPE":0,"CLASSIFICATION_TYPE":"U","NORAD_CAT_ID":63442,"ELEMENT_SET_NO":999,"REV_AT_EPOCH":5336,"BSTAR":0.00039407698,"MEAN_MOTION_DOT":0.00011321,"MEAN_MOTION_DDOT":0}]
